[{"OBJECT_NAME":"ONEWEB-0627","OBJECT_ID":"2023-004AE","EPOCH":"2025-12-01T15:04:18.469920","MEAN_MOTION":13.17648513,"ECCENTRICITY":0.0001326,"INCLINATION":87.9119,"RA_OF_ASC_NODE":45.1657,"ARG_OF_PERICENTER":117.1802,"MEAN_ANOMALY":242.9465,"EPHEMERIS_TYPE":0,"CLASSIFICATION_TYPE":"U","NORAD_CAT_ID":55168,"ELEMENT_SET_NO":999,"REV_AT_EPOCH":14156,"BSTAR":3.7341e-5,"MEAN_MOTION_DOT":2.7e-7,"MEAN_MOTION_DDOT":0},{"OBJECT_NAME":"ONEWEB-0628","OBJECT_ID":"2023-004AF","EPOCH":"2025-12-01T15:28:34.303008","MEAN_MOTION":13.12440907,"ECCENTRICITY":0.000164,"INCLINATION":87.8954,"RA_OF_ASC_NODE":29.8928,"ARG_OF_PERICENTER":124.2513,"MEAN_ANOMALY":235.8771,"EPHEMERIS_TYPE":0,"CLASSIFICATION_TYPE":"U","NORAD_CAT_ID":55169,"ELEMENT_SET_NO":999,"REV_AT_EPOCH":14212,"BSTAR":-0.0012197,"MEAN_MOTION_DOT":-4.26e-6,"MEAN_MOTION_DDOT":0},{"OBJECT_NAME":"ONEWEB-0629","OBJECT_ID":"2023-004AG","EPOCH":"2025-12-01T18:07:45.220800","MEAN_MOTION":13.17646826,"ECCENTRICITY":0.0001934,"INCLINATION":87.912,"RA_OF_ASC_NODE":45.1376,"ARG_OF_PERICENTER":110.7737,"MEAN_ANOMALY":249.3601,"EPHEMERIS_TYPE":0,"CLASSIFICATION_TYPE":"U","NORAD_CAT_ID":55170,"ELEMENT_SET_NO":999,"REV_AT_EPOCH":14158,"BSTAR":-0.00021434,"MEAN_MOTION_DOT":-7.0e-7,"MEAN_MOTION_DDOT":0},{"OBJECT_NAME":"ONEWEB-0631","OBJECT_ID":"2023-004AH","EPOCH":"2025-12-01T19:44:01.125600","MEAN_MOTION":13.18685994,"ECCENTRICITY":0.0001422,"INCLINATION":87.9192,"RA_OF_ASC_NODE":14.6325,"ARG_OF_PERICENTER":79.765,"MEAN_ANOMALY":280.3643,"EPHEMERIS_TYPE":0,"CLASSIFICATION_TYPE":"U","NORAD_CAT_ID":55171,"ELEMENT_SET_NO":999,"REV_AT_EPOCH":14366,"BSTAR":0.00035258,"MEAN_MOTION_DOT":1.52e-6,"MEAN_MOTION_DDOT":0},{"OBJECT_NAME":"ONEWEB-0709","OBJECT_ID":"2023-004AJ","EPOCH":"2025-12-01T16:07:40.655712","MEAN_MOTION":13.11419984,"ECCENTRICITY":0.0001732,"INCLINATION":87.8863,"RA_OF_ASC_NODE":60.4197,"ARG_OF_PERICENTER":72.9475,"MEAN_ANOMALY":287.1843,"EPHEMERIS_TYPE":0,"CLASSIFICATION_TYPE":"U","NORAD_CAT_ID":55172,"ELEMENT_SET_NO":999,"REV_AT_EPOCH":13998,"BSTAR":-0.00011721,"MEAN_MOTION_DOT":-2.9e-7,"MEAN_MOTION_DDOT":0},{"OBJECT_NAME":"ONEWEB-0710","OBJECT_ID":"2023-004AK","EPOCH":"2025-12-01T14:49:43.446144","MEAN_MOTION":13.17648775,"ECCENTRICITY":0.0001568,"INCLINATION":87.912,"RA_OF_ASC_NODE":45.1591,"ARG_OF_PERICENTER":104.7726,"MEAN_ANOMALY":255.358,"EPHEMERIS_TYPE":0,"CLASSIFICATION_TYPE":"U","NORAD_CAT_ID":55173,"ELEMENT_SET_NO":999,"REV_AT_EPOCH":14156,"BSTAR":-0.00011408,"MEAN_MOTION_DOT":-3.1e-7,"MEAN_MOTION_DDOT":0},{"OBJECT_NAME":"ONEWEB-0711","OBJECT_ID":"2023-004AL","EPOCH":"2025-12-01T19:05:53.379744","MEAN_MOTION":13.11416736,"ECCENTRICITY":0.0001239,"INCLINATION":87.887,"RA_OF_ASC_NODE":60.3678,"ARG_OF_PERICENTER":130.3842,"MEAN_ANOMALY":229.7394,"EPHEMERIS_TYPE":0,"CLASSIFICATION_TYPE":"U","NORAD_CAT_ID":55174,"ELEMENT_SET_NO":999,"REV_AT_EPOCH":13996,"BSTAR":-0.0012425,"MEAN_MOTION_DOT":-4.28e-6,"MEAN_MOTION_DDOT":0},{"OBJECT_NAME":"ONEWEB-0713","OBJECT_ID":"2023-004AM","EPOCH":"2025-12-01T17:42:52.569216","MEAN_MOTION":13.11417586,"ECCENTRICITY":0.0001396,"INCLINATION":87.8868,"RA_OF_ASC_NODE":60.3826,"ARG_OF_PERICENTER":117.0245,"MEAN_ANOMALY":243.1026,"EPHEMERIS_TYPE":0,"CLASSIFICATION_TYPE":"U","NORAD_CAT_ID":55175,"ELEMENT_SET_NO":999,"REV_AT_EPOCH":13994,"BSTAR":-0.0024553,"MEAN_MOTION_DOT":-8.57e-6,"MEAN_MOTION_DDOT":0},{"OBJECT_NAME":"ONEWEB-0715","OBJECT_ID":"2023-004AN","EPOCH":"2025-12-01T19:25:25.674816","MEAN_MOTION":13.11417368,"ECCENTRICITY":0.0001304,"INCLINATION":87.8869,"RA_OF_ASC_NODE":60.3685,"ARG_OF_PERICENTER":79.3222,"MEAN_ANOMALY":280.8052,"EPHEMERIS_TYPE":0,"CLASSIFICATION_TYPE":"U","NORAD_CAT_ID":55176,"ELEMENT_SET_NO":999,"REV_AT_EPOCH":13999,"BSTAR":-0.0016852,"MEAN_MOTION_DOT":-5.85e-6,"MEAN_MOTION_DDOT":0},{"OBJECT_NAME":"ONEWEB-0716","OBJECT_ID":"2023-004AP","EPOCH":"2025-12-01T18:18:42.169248","MEAN_MOTION":13.17647094,"ECCENTRICITY":0.0001989,"INCLINATION":87.9119,"RA_OF_ASC_NODE":45.1301,"ARG_OF_PERICENTER":100.6266,"MEAN_ANOMALY":259.509,"EPHEMERIS_TYPE":0,"CLASSIFICATION_TYPE":"U","NORAD_CAT_ID":55177,"ELEMENT_SET_NO":999,"REV_AT_EPOCH":14158,"BSTAR":-0.00015303,"MEAN_MOTION_DOT":-4.7e-7,"MEAN_MOTION_DDOT":0},{"OBJECT_NAME":"ONEWEB-0717","OBJECT_ID":"2023-004AQ","EPOCH":"2025-12-01T16:05:03.145920","MEAN_MOTION":13.17648251,"ECCENTRICITY":0.0001121,"INCLINATION":87.9134,"RA_OF_ASC_NODE":45.1184,"ARG_OF_PERICENTER":117.9959,"MEAN_ANOMALY":242.1286,"EPHEMERIS_TYPE":0,"CLASSIFICATION_TYPE":"U","NORAD_CAT_ID":55178,"ELEMENT_SET_NO":999,"REV_AT_EPOCH":14162,"BSTAR":-0.00016095,"MEAN_MOTION_DOT":-5.0e-7,"MEAN_MOTION_DDOT":0},{"OBJECT_NAME":"ONEWEB-0719","OBJECT_ID":"2023-004AR","EPOCH":"2025-12-01T18:08:58.862976","MEAN_MOTION":13.17648023,"ECCENTRICITY":0.0001961,"INCLINATION":87.9131,"RA_OF_ASC_NODE":45.0837,"ARG_OF_PERICENTER":105.9607,"MEAN_ANOMALY":254.1741,"EPHEMERIS_TYPE":0,"CLASSIFICATION_TYPE":"U","NORAD_CAT_ID":55179,"ELEMENT_SET_NO":999,"REV_AT_EPOCH":14158,"BSTAR":-0.00039017,"MEAN_MOTION_DOT":-1.39e-6,"MEAN_MOTION_DDOT":0},{"OBJECT_NAME":"ONEWEB-0530","OBJECT_ID":"2023-029A","EPOCH":"2025-12-01T16:02:17.167200","MEAN_MOTION":13.207735,"ECCENTRICITY":0.0001487,"INCLINATION":87.9187,"RA_OF_ASC_NODE":313.8753,"ARG_OF_PERICENTER":99.3776,"MEAN_ANOMALY":260.7526,"EPHEMERIS_TYPE":0,"CLASSIFICATION_TYPE":"U","NORAD_CAT_ID":55796,"ELEMENT_SET_NO":999,"REV_AT_EPOCH":13507,"BSTAR":0.0002979,"MEAN_MOTION_DOT":1.34e-6,"MEAN_MOTION_DDOT":0},{"OBJECT_NAME":"ONEWEB-0534","OBJECT_ID":"2023-029B","EPOCH":"2025-12-01T15:44:06.552096","MEAN_MOTION":13.20773416,"ECCENTRICITY":0.0001923,"INCLINATION":87.9183,"RA_OF_ASC_NODE":313.8787,"ARG_OF_PERICENTER":86.8174,"MEAN_ANOMALY":273.318,"EPHEMERIS_TYPE":0,"CLASSIFICATION_TYPE":"U","NORAD_CAT_ID":55797,"ELEMENT_SET_NO":999,"REV_AT_EPOCH":13507,"BSTAR":0.00026472,"MEAN_MOTION_DOT":1.21e-6,"MEAN_MOTION_DDOT":0},{"OBJECT_NAME":"ONEWEB-0556","OBJECT_ID":"2023-029C","EPOCH":"2025-12-01T15:53:12.452352","MEAN_MOTION":13.20771431,"ECCENTRICITY":0.0002447,"INCLINATION":87.9191,"RA_OF_ASC_NODE":313.8767,"ARG_OF_PERICENTER":105.4664,"MEAN_ANOMALY":254.674,"EPHEMERIS_TYPE":0,"CLASSIFICATION_TYPE":"U","NORAD_CAT_ID":55798,"ELEMENT_SET_NO":999,"REV_AT_EPOCH":13507,"BSTAR":0.00033042,"MEAN_MOTION_DOT":1.47e-6,"MEAN_MOTION_DDOT":0},{"OBJECT_NAME":"ONEWEB-0562","OBJECT_ID":"2023-029D","EPOCH":"2025-12-01T10:07:45.156288","MEAN_MOTION":13.20770889,"ECCENTRICITY":0.0001672,"INCLINATION":87.9184,"RA_OF_ASC_NODE":313.9073,"ARG_OF_PERICENTER":115.8344,"MEAN_ANOMALY":244.2962,"EPHEMERIS_TYPE":0,"CLASSIFICATION_TYPE":"U","NORAD_CAT_ID":55799,"ELEMENT_SET_NO":999,"REV_AT_EPOCH":13504,"BSTAR":-6.9856e-6,"MEAN_MOTION_DOT":1.0e-7,"MEAN_MOTION_DDOT":0},{"OBJECT_NAME":"ONEWEB-0563","OBJECT_ID":"2023-029E","EPOCH":"2025-12-01T15:25:55.731360","MEAN_MOTION":13.20773548,"ECCENTRICITY":0.0002093,"INCLINATION":87.9186,"RA_OF_ASC_NODE":313.8904,"ARG_OF_PERICENTER":87.391,"MEAN_ANOMALY":272.7463,"EPHEMERIS_TYPE":0,"CLASSIFICATION_TYPE":"U","NORAD_CAT_ID":55800,"ELEMENT_SET_NO":999,"REV_AT_EPOCH":13506,"BSTAR":0.00022936,"MEAN_MOTION_DOT":1.06e-6,"MEAN_MOTION_DDOT":0}]
