ONEWEB-0627             
1 55168U 23004AE  25335.62799155  .00000027  00000+0  37341-4 0  9996
2 55168  87.9119  45.1657 0001326 117.1802 242.9465 13.17648513141560
ONEWEB-0628             
1 55169U 23004AF  25335.64484147 -.00000426  00000+0 -12197-2 0  9996
2 55169  87.8954  29.8928 0001640 124.2513 235.8771 13.12440907142120
ONEWEB-0629             
1 55170U 23004AG  25335.75538450 -.00000070  00000+0 -21434-3 0  9997
2 55170  87.9120  45.1376 0001934 110.7737 249.3601 13.17646826141584
ONEWEB-0631             
1 55171U 23004AH  25335.82223525  .00000152  00000+0  35258-3 0  9998
2 55171  87.9192  14.6325 0001422  79.7650 280.3643 13.18685994143661
ONEWEB-0709             
1 55172U 23004AJ  25335.67199833 -.00000029  00000+0 -11721-3 0  9990
2 55172  87.8863  60.4197 0001732  72.9475 287.1843 13.11419984139980
ONEWEB-0710             
1 55173U 23004AK  25335.61786396 -.00000031  00000+0 -11408-3 0  9996
2 55173  87.9120  45.1591 0001568 104.7726 255.3580 13.17648775141566
ONEWEB-0711             
1 55174U 23004AL  25335.79575671 -.00000428  00000+0 -12425-2 0  9997
2 55174  87.8870  60.3678 0001239 130.3842 229.7394 13.11416736139965
ONEWEB-0713             
1 55175U 23004AM  25335.73810844 -.00000857  00000+0 -24553-2 0  9997
2 55175  87.8868  60.3826 0001396 117.0245 243.1026 13.11417586139945
ONEWEB-0715             
1 55176U 23004AN  25335.80932494 -.00000585  00000+0 -16852-2 0  9993
2 55176  87.8869  60.3685 0001304  79.3222 280.8052 13.11417368139994
ONEWEB-0716             
1 55177U 23004AP  25335.76298807 -.00000047  00000+0 -15303-3 0  9996
2 55177  87.9119  45.1301 0001989 100.6266 259.5090 13.17647094141585
ONEWEB-0717             
1 55178U 23004AQ  25335.67017530 -.00000050  00000+0 -16095-3 0  9992
2 55178  87.9134  45.1184 0001121 117.9959 242.1286 13.17648251141626
ONEWEB-0719             
1 55179U 23004AR  25335.75623684 -.00000139  00000+0 -39017-3 0  9992
2 55179  87.9131  45.0837 0001961 105.9607 254.1741 13.17648023141588
ONEWEB-0530             
1 55796U 23029A   25335.66825425  .00000134  00000+0  29790-3 0  9991
2 55796  87.9187 313.8753 0001487  99.3776 260.7526 13.20773500135077
ONEWEB-0534             
1 55797U 23029B   25335.65563139  .00000121  00000+0  26472-3 0  9992
2 55797  87.9183 313.8787 0001923  86.8174 273.3180 13.20773416135071
ONEWEB-0556             
1 55798U 23029C   25335.66194968  .00000147  00000+0  33042-3 0  9993
2 55798  87.9191 313.8767 0002447 105.4664 254.6740 13.20771431135072
ONEWEB-0562             
1 55799U 23029D   25335.42205042  .00000010  00000+0 -69856-5 0  9998
2 55799  87.9184 313.9073 0001672 115.8344 244.2962 13.20770889135049
ONEWEB-0563             
1 55800U 23029E   25335.64300615  .00000106  00000+0  22936-3 0  9998
2 55800  87.9186 313.8904 0002093  87.3910 272.7463 13.20773548135065
